{"type":"FeatureCollection","source":"Rebuilt from the team's QGIS project Chekmitaal.qgs: lake = ellipse fitted to the recorded extent of layer Chekmi_Taal (outline approximate); catchment and drainage from Copernicus DEM GLO-30 on the project grid (UTM 44N, 28.5 m), least-cost flow routing; drainage drawn where >= 60 cells drain.","lake_centre":[28.079772,83.199665],"features":[{"type":"Feature","properties":{"kind":"catchment","name":"Total contributing catchment","area_m2":294847,"area_ha":29.48},"geometry":{"type":"Polygon","coordinates":[[[83.198958,28.081015],[83.198952,28.080758],[83.198373,28.080767],[83.198367,28.08051],[83.198078,28.080515],[83.198072,28.080258],[83.197783,28.080263],[83.197772,28.079748],[83.197482,28.079753],[83.197472,28.079239],[83.197182,28.079244],[83.197177,28.078986],[83.196307,28.079],[83.196312,28.079257],[83.195443,28.079271],[83.195432,28.078757],[83.195722,28.078753],[83.195685,28.076953],[83.195975,28.076948],[83.195965,28.076434],[83.196255,28.07643],[83.196249,28.076172],[83.196539,28.076168],[83.196524,28.075397],[83.196234,28.075401],[83.196223,28.074887],[83.195933,28.074892],[83.195923,28.074377],[83.195633,28.074382],[83.195628,28.074125],[83.197657,28.074093],[83.197652,28.073835],[83.198231,28.073826],[83.198226,28.073569],[83.199096,28.073555],[83.19909,28.073298],[83.19967,28.073289],[83.199665,28.073032],[83.199955,28.073027],[83.199965,28.073541],[83.199675,28.073546],[83.199717,28.075603],[83.200007,28.075598],[83.200033,28.076883],[83.200323,28.076879],[83.200334,28.077393],[83.200623,28.077388],[83.20065,28.078674],[83.20094,28.078669],[83.200961,28.079697],[83.200671,28.079702],[83.200676,28.079959],[83.200386,28.079964],[83.200391,28.080221],[83.200101,28.080225],[83.200107,28.080483],[83.199527,28.080492],[83.199532,28.080749],[83.199242,28.080754],[83.199248,28.081011],[83.198958,28.081015]]]}},{"type":"Feature","properties":{"kind":"lake","name":"Chhekmi Taal","extent_m":[86,116]},"geometry":{"type":"Polygon","coordinates":[[[83.2001,28.079765],[83.200099,28.079739],[83.200097,28.079714],[83.200094,28.079688],[83.20009,28.079663],[83.200085,28.079638],[83.200078,28.079614],[83.200071,28.07959],[83.200063,28.079566],[83.200054,28.079543],[83.200044,28.07952],[83.200033,28.079498],[83.200021,28.079477],[83.200008,28.079456],[83.199995,28.079436],[83.19998,28.079417],[83.199965,28.079398],[83.199949,28.079381],[83.199933,28.079365],[83.199916,28.079349],[83.199898,28.079335],[83.19988,28.079321],[83.199861,28.079309],[83.199841,28.079298],[83.199822,28.079288],[83.199802,28.079279],[83.199781,28.079271],[83.19976,28.079265],[83.199739,28.079259],[83.199718,28.079255],[83.199697,28.079253],[83.199676,28.079251],[83.199654,28.079251],[83.199633,28.079252],[83.199612,28.079254],[83.19959,28.079258],[83.19957,28.079262],[83.199549,28.079268],[83.199528,28.079275],[83.199508,28.079284],[83.199488,28.079293],[83.199469,28.079304],[83.19945,28.079316],[83.199432,28.079329],[83.199414,28.079343],[83.199397,28.079358],[83.19938,28.079374],[83.199365,28.07939],[83.19935,28.079408],[83.199335,28.079427],[83.199322,28.079447],[83.199309,28.079467],[83.199297,28.079488],[83.199286,28.07951],[83.199276,28.079532],[83.199267,28.079555],[83.199259,28.079579],[83.199251,28.079603],[83.199245,28.079627],[83.19924,28.079652],[83.199236,28.079677],[83.199233,28.079702],[83.199231,28.079728],[83.19923,28.079753],[83.19923,28.079779],[83.199231,28.079804],[83.199233,28.07983],[83.199236,28.079855],[83.19924,28.07988],[83.199245,28.079905],[83.199251,28.07993],[83.199259,28.079954],[83.199267,28.079978],[83.199276,28.080001],[83.199286,28.080024],[83.199297,28.080046],[83.199309,28.080067],[83.199322,28.080088],[83.199335,28.080108],[83.199349,28.080127],[83.199365,28.080145],[83.19938,28.080162],[83.199397,28.080179],[83.199414,28.080194],[83.199432,28.080209],[83.19945,28.080222],[83.199469,28.080234],[83.199488,28.080246],[83.199508,28.080256],[83.199528,28.080265],[83.199549,28.080272],[83.199569,28.080279],[83.19959,28.080284],[83.199611,28.080288],[83.199633,28.080291],[83.199654,28.080292],[83.199675,28.080293],[83.199697,28.080292],[83.199718,28.08029],[83.199739,28.080286],[83.19976,28.080281],[83.199781,28.080275],[83.199801,28.080268],[83.199822,28.08026],[83.199841,28.08025],[83.199861,28.08024],[83.199879,28.080228],[83.199898,28.080215],[83.199916,28.080201],[83.199933,28.080186],[83.199949,28.08017],[83.199965,28.080153],[83.19998,28.080135],[83.199995,28.080116],[83.200008,28.080097],[83.200021,28.080076],[83.200033,28.080055],[83.200044,28.080034],[83.200054,28.080011],[83.200063,28.079988],[83.200071,28.079965],[83.200078,28.079941],[83.200084,28.079916],[83.20009,28.079892],[83.200094,28.079867],[83.200097,28.079841],[83.200099,28.079816],[83.2001,28.07979],[83.2001,28.079765]]]}},{"type":"Feature","properties":{"kind":"drain","w":1},"geometry":{"type":"LineString","coordinates":[[83.174285,28.072536],[83.17429,28.072793],[83.173436,28.073578]]}},{"type":"Feature","properties":{"kind":"drain","w":1},"geometry":{"type":"LineString","coordinates":[[83.175301,28.108524],[83.17587,28.108001],[83.17616,28.107996],[83.176445,28.107734]]}},{"type":"Feature","properties":{"kind":"drain","w":1},"geometry":{"type":"LineString","coordinates":[[83.175781,28.074827],[83.175212,28.07535],[83.175222,28.075865],[83.174937,28.076126],[83.174953,28.076897],[83.174668,28.077159],[83.174715,28.079473],[83.17443,28.079735],[83.174435,28.079992],[83.17532,28.080749]]}},{"type":"Feature","properties":{"kind":"drain","w":1},"geometry":{"type":"LineString","coordinates":[[83.175594,28.065572],[83.175889,28.065824],[83.176179,28.06582],[83.176474,28.066072],[83.177054,28.066063],[83.178529,28.067325]]}},{"type":"Feature","properties":{"kind":"drain","w":1},"geometry":{"type":"LineString","coordinates":[[83.176201,28.095651],[83.176191,28.095137],[83.1756,28.094632],[83.175885,28.09437],[83.176175,28.094366],[83.17646,28.094104],[83.17675,28.094099],[83.177034,28.093838],[83.178194,28.093819]]}},{"type":"Feature","properties":{"kind":"drain","w":1},"geometry":{"type":"LineString","coordinates":[[83.177341,28.109006],[83.177336,28.108749],[83.17645,28.107991],[83.176445,28.107734]]}},{"type":"Feature","properties":{"kind":"drain","w":1},"geometry":{"type":"LineString","coordinates":[[83.176445,28.107734],[83.17673,28.107473],[83.17702,28.107468],[83.177304,28.107206]]}},{"type":"Feature","properties":{"kind":"drain","w":1},"geometry":{"type":"LineString","coordinates":[[83.176309,28.086648],[83.176599,28.086644],[83.177189,28.087149],[83.177479,28.087144],[83.18043,28.089669]]}},{"type":"Feature","properties":{"kind":"drain","w":1},"geometry":{"type":"LineString","coordinates":[[83.176719,28.106958],[83.177014,28.107211],[83.177304,28.107206]]}},{"type":"Feature","properties":{"kind":"drain","w":1},"geometry":{"type":"LineString","coordinates":[[83.177149,28.099494],[83.178308,28.099475],[83.179162,28.09869],[83.179742,28.098681],[83.180027,28.098419],[83.180317,28.098415],[83.180602,28.098153],[83.180892,28.098148]]}},{"type":"Feature","properties":{"kind":"drain","w":1},"geometry":{"type":"LineString","coordinates":[[83.177304,28.107206],[83.177884,28.107197],[83.178169,28.106935]]}},{"type":"Feature","properties":{"kind":"drain","w":1},"geometry":{"type":"LineString","coordinates":[[83.177318,28.064773],[83.178767,28.06475],[83.179062,28.065002],[83.179931,28.064989],[83.180216,28.064727],[83.180506,28.064722],[83.181075,28.064199],[83.181365,28.064194],[83.18165,28.063933],[83.182229,28.063923],[83.182524,28.064176],[83.184263,28.064148],[83.184558,28.064401],[83.184848,28.064396]]}},{"type":"Feature","properties":{"kind":"drain","w":1},"geometry":{"type":"LineString","coordinates":[[83.177453,28.071457],[83.177737,28.071196],[83.178027,28.071191],[83.178617,28.071696],[83.179197,28.071687],[83.181189,28.069855],[83.181184,28.069598],[83.181469,28.069336],[83.181459,28.068822],[83.181164,28.068569],[83.181153,28.068055]]}},{"type":"Feature","properties":{"kind":"drain","w":1},"geometry":{"type":"LineString","coordinates":[[83.179746,28.084537],[83.179457,28.084541],[83.177748,28.086111]]}},{"type":"Feature","properties":{"kind":"drain","w":1},"geometry":{"type":"LineString","coordinates":[[83.177894,28.09331],[83.177899,28.093567],[83.178194,28.093819]]}},{"type":"Feature","properties":{"kind":"drain","w":1},"geometry":{"type":"LineString","coordinates":[[83.178194,28.093819],[83.179079,28.094577],[83.179659,28.094568],[83.179954,28.09482],[83.180808,28.094035],[83.180819,28.094549],[83.180534,28.094811]]}},{"type":"Feature","properties":{"kind":"drain","w":1},"geometry":{"type":"LineString","coordinates":[[83.178239,28.06733],[83.178529,28.067325]]}},{"type":"Feature","properties":{"kind":"drain","w":1},"geometry":{"type":"LineString","coordinates":[[83.178529,28.067325],[83.179109,28.067316],[83.179404,28.067569],[83.179694,28.067564],[83.180284,28.068069],[83.180863,28.06806]]}},{"type":"Feature","properties":{"kind":"drain","w":1},"geometry":{"type":"LineString","coordinates":[[83.178975,28.089435],[83.179845,28.089421],[83.18014,28.089674],[83.18043,28.089669]]}},{"type":"Feature","properties":{"kind":"drain","w":1},"geometry":{"type":"LineString","coordinates":[[83.179846,28.103823],[83.179872,28.105108],[83.180167,28.105361]]}},{"type":"Feature","properties":{"kind":"drain","w":1},"geometry":{"type":"LineString","coordinates":[[83.180043,28.099191],[83.180037,28.098933],[83.180892,28.098148]]}},{"type":"Feature","properties":{"kind":"drain","w":1},"geometry":{"type":"LineString","coordinates":[[83.179829,28.074248],[83.180408,28.074239],[83.180703,28.074492],[83.180708,28.074749],[83.182184,28.076011],[83.182763,28.076002],[83.183354,28.076507],[83.183933,28.076498],[83.184818,28.077255]]}},{"type":"Feature","properties":{"kind":"drain","w":1},"geometry":{"type":"LineString","coordinates":[[83.18043,28.089669],[83.18072,28.089664]]}},{"type":"Feature","properties":{"kind":"drain","w":1},"geometry":{"type":"LineString","coordinates":[[83.180892,28.098148],[83.181181,28.098144],[83.18232,28.097097],[83.182315,28.09684],[83.183169,28.096055]]}},{"type":"Feature","properties":{"kind":"drain","w":1},"geometry":{"type":"LineString","coordinates":[[83.180999,28.089146],[83.18159,28.089651]]}},{"type":"Feature","properties":{"kind":"drain","w":1},"geometry":{"type":"LineString","coordinates":[[83.181088,28.093516],[83.181378,28.093512]]}},{"type":"Feature","properties":{"kind":"drain","w":1},"geometry":{"type":"LineString","coordinates":[[83.181643,28.106623],[83.181053,28.106118],[83.181048,28.105861],[83.181332,28.105599]]}},{"type":"Feature","properties":{"kind":"drain","w":1},"geometry":{"type":"LineString","coordinates":[[83.181139,28.081686],[83.181144,28.081943]]}},{"type":"Feature","properties":{"kind":"drain","w":1},"geometry":{"type":"LineString","coordinates":[[83.181876,28.10379],[83.181881,28.104048],[83.181596,28.104309],[83.181891,28.104562],[83.181897,28.104819],[83.182487,28.105324]]}},{"type":"Feature","properties":{"kind":"drain","w":1},"geometry":{"type":"LineString","coordinates":[[83.181651,28.078334],[83.181666,28.079105],[83.181961,28.079358],[83.181967,28.079615],[83.182262,28.079867],[83.182277,28.080639],[83.182572,28.080891]]}},{"type":"Feature","properties":{"kind":"drain","w":1},"geometry":{"type":"LineString","coordinates":[[83.184478,28.08909],[83.18277,28.090661],[83.182775,28.090918]]}},{"type":"Feature","properties":{"kind":"drain","w":1},"geometry":{"type":"LineString","coordinates":[[83.18335,28.090651],[83.18278,28.091175]]}},{"type":"Feature","properties":{"kind":"drain","w":1},"geometry":{"type":"LineString","coordinates":[[83.182827,28.093488],[83.182838,28.094003]]}},{"type":"Feature","properties":{"kind":"drain","w":1},"geometry":{"type":"LineString","coordinates":[[83.182944,28.070598],[83.183229,28.070337],[83.183224,28.07008],[83.184931,28.068509]]}},{"type":"Feature","properties":{"kind":"drain","w":1},"geometry":{"type":"LineString","coordinates":[[83.184081,28.098098],[83.184365,28.097836]]}},{"type":"Feature","properties":{"kind":"drain","w":1},"geometry":{"type":"LineString","coordinates":[[83.184982,28.099626],[83.185266,28.099365],[83.185256,28.09885],[83.184371,28.098093],[83.184365,28.097836]]}},{"type":"Feature","properties":{"kind":"drain","w":1},"geometry":{"type":"LineString","coordinates":[[83.184365,28.097836],[83.18465,28.097574],[83.184645,28.097317],[83.185214,28.096794]]}},{"type":"Feature","properties":{"kind":"drain","w":1},"geometry":{"type":"LineString","coordinates":[[83.1846,28.109405],[83.185169,28.108881],[83.185164,28.108624],[83.185449,28.108363],[83.185154,28.10811],[83.185438,28.107848],[83.185417,28.10682],[83.185987,28.106297]]}},{"type":"Feature","properties":{"kind":"drain","w":1},"geometry":{"type":"LineString","coordinates":[[83.185751,28.080326],[83.185171,28.080335],[83.184581,28.079831]]}},{"type":"Feature","properties":{"kind":"drain","w":1},"geometry":{"type":"LineString","coordinates":[[83.18733,28.08673],[83.18704,28.086735],[83.186756,28.086997],[83.186176,28.087006],[83.185891,28.087268],[83.185601,28.087272],[83.185317,28.087534],[83.185311,28.087277],[83.185596,28.087015],[83.185006,28.08651],[83.185001,28.086253]]}},{"type":"Feature","properties":{"kind":"drain","w":1},"geometry":{"type":"LineString","coordinates":[[83.18727,28.098047],[83.187554,28.097785],[83.187544,28.097271],[83.186363,28.096261],[83.186358,28.096004]]}},{"type":"Feature","properties":{"kind":"drain","w":1},"geometry":{"type":"LineString","coordinates":[[83.186617,28.094457],[83.186622,28.094714],[83.187803,28.095724]]}},{"type":"Feature","properties":{"kind":"drain","w":1},"geometry":{"type":"LineString","coordinates":[[83.187447,28.106788],[83.187732,28.106526]]}},{"type":"Feature","properties":{"kind":"drain","w":1},"geometry":{"type":"LineString","coordinates":[[83.192256,28.07225],[83.192245,28.071736],[83.19077,28.070474],[83.19048,28.070478],[83.18871,28.068964],[83.18842,28.068968],[83.188125,28.068716],[83.187835,28.06872],[83.18754,28.068468],[83.18725,28.068473],[83.186955,28.06822]]}},{"type":"Feature","properties":{"kind":"drain","w":1},"geometry":{"type":"LineString","coordinates":[[83.189104,28.074101],[83.188234,28.074115],[83.187096,28.075161]]}},{"type":"Feature","properties":{"kind":"drain","w":1},"geometry":{"type":"LineString","coordinates":[[83.18762,28.086726],[83.18733,28.08673]]}},{"type":"Feature","properties":{"kind":"drain","w":1},"geometry":{"type":"LineString","coordinates":[[83.188469,28.085683],[83.18733,28.08673]]}},{"type":"Feature","properties":{"kind":"drain","w":1},"geometry":{"type":"LineString","coordinates":[[83.188015,28.063317],[83.18831,28.063569],[83.188326,28.064341],[83.187757,28.064864],[83.187762,28.065121],[83.187477,28.065383],[83.187483,28.06564]]}},{"type":"Feature","properties":{"kind":"drain","w":1},"geometry":{"type":"LineString","coordinates":[[83.188565,28.104712],[83.188581,28.105484],[83.189466,28.106241]]}},{"type":"Feature","properties":{"kind":"drain","w":1},"geometry":{"type":"LineString","coordinates":[[83.189453,28.091326],[83.189748,28.091578],[83.189785,28.093378],[83.1895,28.093639],[83.189795,28.093892],[83.189226,28.094415],[83.189231,28.094672],[83.189821,28.095177]]}},{"type":"Feature","properties":{"kind":"drain","w":1},"geometry":{"type":"LineString","coordinates":[[83.189709,28.103923],[83.190004,28.104175],[83.190025,28.105203],[83.19032,28.105456],[83.190036,28.105718],[83.190331,28.10597]]}},{"type":"Feature","properties":{"kind":"drain","w":1},"geometry":{"type":"LineString","coordinates":[[83.189817,28.066374],[83.189527,28.066379]]}},{"type":"Feature","properties":{"kind":"drain","w":1},"geometry":{"type":"LineString","coordinates":[[83.191221,28.078439],[83.190937,28.078701],[83.189777,28.078719]]}},{"type":"Feature","properties":{"kind":"drain","w":1},"geometry":{"type":"LineString","coordinates":[[83.190331,28.10597],[83.190626,28.106223]]}},{"type":"Feature","properties":{"kind":"drain","w":1},"geometry":{"type":"LineString","coordinates":[[83.1909,28.105447],[83.190331,28.10597]]}},{"type":"Feature","properties":{"kind":"drain","w":1},"geometry":{"type":"LineString","coordinates":[[83.191318,28.097468],[83.191608,28.097463],[83.191903,28.097716],[83.192188,28.097454]]}},{"type":"Feature","properties":{"kind":"drain","w":1},"geometry":{"type":"LineString","coordinates":[[83.191511,28.078434],[83.191221,28.078439]]}},{"type":"Feature","properties":{"kind":"drain","w":1},"geometry":{"type":"LineString","coordinates":[[83.19236,28.077392],[83.191221,28.078439]]}},{"type":"Feature","properties":{"kind":"drain","w":1},"geometry":{"type":"LineString","coordinates":[[83.192235,28.099768],[83.19223,28.099511],[83.192514,28.099249],[83.192504,28.098735],[83.192788,28.098473],[83.192493,28.09822],[83.192488,28.097963],[83.192193,28.097711],[83.192478,28.097449]]}},{"type":"Feature","properties":{"kind":"drain","w":1},"geometry":{"type":"LineString","coordinates":[[83.193112,28.085866],[83.192827,28.086128],[83.192895,28.08947],[83.192611,28.089732],[83.192632,28.09076],[83.192347,28.091022],[83.192363,28.091793]]}},{"type":"Feature","properties":{"kind":"drain","w":1},"geometry":{"type":"LineString","coordinates":[[83.192073,28.063252],[83.192642,28.062729]]}},{"type":"Feature","properties":{"kind":"drain","w":1},"geometry":{"type":"LineString","coordinates":[[83.193509,28.076859],[83.193219,28.076864],[83.19265,28.077387],[83.19236,28.077392]]}},{"type":"Feature","properties":{"kind":"drain","w":1},"geometry":{"type":"LineString","coordinates":[[83.19295,28.077897],[83.19236,28.077392]]}},{"type":"Feature","properties":{"kind":"drain","w":1},"geometry":{"type":"LineString","coordinates":[[83.197015,28.063945],[83.196425,28.06344],[83.195846,28.063449],[83.195561,28.063711],[83.193532,28.063743],[83.192647,28.062986],[83.192642,28.062729]]}},{"type":"Feature","properties":{"kind":"drain","w":1},"geometry":{"type":"LineString","coordinates":[[83.192642,28.062729],[83.193496,28.061944]]}},{"type":"Feature","properties":{"kind":"drain","w":1},"geometry":{"type":"LineString","coordinates":[[83.194732,28.108471],[83.193878,28.109257]]}},{"type":"Feature","properties":{"kind":"drain","w":1},"geometry":{"type":"LineString","coordinates":[[83.19418,28.067076],[83.194169,28.066562],[83.194739,28.066038],[83.194444,28.065786]]}},{"type":"Feature","properties":{"kind":"drain","w":1},"geometry":{"type":"LineString","coordinates":[[83.194865,28.100754],[83.194849,28.099983],[83.195134,28.099721],[83.195129,28.099464],[83.195413,28.099202],[83.195408,28.098945],[83.195113,28.098693],[83.195103,28.098179],[83.195387,28.097917],[83.195092,28.097665],[83.195087,28.097407]]}},{"type":"Feature","properties":{"kind":"drain","w":1},"geometry":{"type":"LineString","coordinates":[[83.195982,28.070133],[83.195971,28.069619],[83.196256,28.069357],[83.196235,28.068329],[83.195645,28.067824],[83.195639,28.067567],[83.195924,28.067305],[83.195629,28.067053],[83.195624,28.066796]]}},{"type":"Feature","properties":{"kind":"drain","w":1},"geometry":{"type":"LineString","coordinates":[[83.197747,28.071391],[83.197157,28.070886],[83.196577,28.070895],[83.195987,28.07039],[83.195982,28.070133]]}},{"type":"Feature","properties":{"kind":"drain","w":1},"geometry":{"type":"LineString","coordinates":[[83.196308,28.071928],[83.196303,28.071671],[83.196008,28.071419],[83.196292,28.071157],[83.196287,28.0709],[83.195697,28.070395],[83.195982,28.070133]]}},{"type":"Feature","properties":{"kind":"drain","w":1},"geometry":{"type":"LineString","coordinates":[[83.196849,28.084264],[83.199505,28.086536]]}},{"type":"Feature","properties":{"kind":"drain","w":1},"geometry":{"type":"LineString","coordinates":[[83.197076,28.081174],[83.197961,28.081931],[83.197967,28.082188],[83.198262,28.082441],[83.198288,28.083726],[83.198583,28.083979],[83.198599,28.08475],[83.199484,28.085507],[83.199495,28.086021],[83.19979,28.086274],[83.199505,28.086536]]}},{"type":"Feature","properties":{"kind":"drain","w":1},"geometry":{"type":"LineString","coordinates":[[83.197572,28.077051],[83.197577,28.077308],[83.198463,28.078066]]}},{"type":"Feature","properties":{"kind":"drain","w":1},"geometry":{"type":"LineString","coordinates":[[83.198463,28.078066],[83.198758,28.078318],[83.198763,28.078575],[83.199058,28.078828],[83.199063,28.079085],[83.199654,28.07959],[83.199659,28.079847],[83.199954,28.080099],[83.199964,28.080613],[83.200259,28.080866],[83.20028,28.081894],[83.200576,28.082147]]}},{"type":"Feature","properties":{"kind":"drain","w":1},"geometry":{"type":"LineString","coordinates":[[83.199006,28.076257],[83.199301,28.076509],[83.199306,28.076766],[83.199021,28.077028],[83.199027,28.077285],[83.198457,28.077809],[83.198463,28.078066]]}},{"type":"Feature","properties":{"kind":"drain","w":1},"geometry":{"type":"LineString","coordinates":[[83.198704,28.089892],[83.198714,28.090406],[83.199009,28.090658],[83.19902,28.091172],[83.199315,28.091425],[83.199325,28.091939],[83.19962,28.092191],[83.199652,28.093734],[83.200242,28.094239],[83.200247,28.094496],[83.200543,28.094748]]}},{"type":"Feature","properties":{"kind":"drain","w":1},"geometry":{"type":"LineString","coordinates":[[83.201405,28.065932],[83.200825,28.065941],[83.199687,28.066988],[83.199397,28.066993],[83.199112,28.067254],[83.196794,28.067291],[83.197089,28.067544],[83.197094,28.067801],[83.197389,28.068053],[83.197394,28.06831],[83.198574,28.06932],[83.19858,28.069577],[83.19917,28.070082]]}},{"type":"Feature","properties":{"kind":"drain","w":1},"geometry":{"type":"LineString","coordinates":[[83.199505,28.086536],[83.1998,28.086788]]}},{"type":"Feature","properties":{"kind":"drain","w":1},"geometry":{"type":"LineString","coordinates":[[83.200494,28.106579],[83.201084,28.107084],[83.201374,28.107079],[83.20285,28.108341]]}},{"type":"Feature","properties":{"kind":"drain","w":1},"geometry":{"type":"LineString","coordinates":[[83.201523,28.100133],[83.202408,28.10089],[83.202698,28.100886],[83.202993,28.101138],[83.203573,28.101129]]}},{"type":"Feature","properties":{"kind":"drain","w":1},"geometry":{"type":"LineString","coordinates":[[83.201923,28.105527],[83.202218,28.10578],[83.202223,28.106037],[83.202814,28.106542],[83.202829,28.107313],[83.204896,28.10908],[83.204606,28.109084],[83.204015,28.10858],[83.203731,28.108841],[83.20314,28.108337],[83.20285,28.108341]]}},{"type":"Feature","properties":{"kind":"drain","w":1},"geometry":{"type":"LineString","coordinates":[[83.202904,28.096768],[83.202614,28.096772],[83.202329,28.097034],[83.202335,28.097291]]}},{"type":"Feature","properties":{"kind":"drain","w":1},"geometry":{"type":"LineString","coordinates":[[83.20256,28.108346],[83.20285,28.108341]]}},{"type":"Feature","properties":{"kind":"drain","w":1},"geometry":{"type":"LineString","coordinates":[[83.202484,28.076201],[83.203074,28.076706],[83.203364,28.076701]]}},{"type":"Feature","properties":{"kind":"drain","w":1},"geometry":{"type":"LineString","coordinates":[[83.202774,28.076196],[83.203364,28.076701]]}},{"type":"Feature","properties":{"kind":"drain","w":1},"geometry":{"type":"LineString","coordinates":[[83.206878,28.092589],[83.206588,28.092594],[83.206304,28.092856],[83.206014,28.09286],[83.205729,28.093122],[83.20486,28.093136],[83.204575,28.093398],[83.204285,28.093402],[83.204,28.093664],[83.203711,28.093669],[83.203141,28.094192]]}},{"type":"Feature","properties":{"kind":"drain","w":1},"geometry":{"type":"LineString","coordinates":[[83.208359,28.094108],[83.20778,28.094118],[83.207495,28.094379],[83.206915,28.094389],[83.206631,28.094651],[83.206341,28.094655],[83.206056,28.094917],[83.205186,28.094931],[83.204902,28.095193],[83.204322,28.095202],[83.203732,28.094697],[83.203447,28.094959],[83.203157,28.094964]]}},{"type":"Feature","properties":{"kind":"drain","w":1},"geometry":{"type":"LineString","coordinates":[[83.203381,28.063328],[83.203091,28.063333]]}},{"type":"Feature","properties":{"kind":"drain","w":1},"geometry":{"type":"LineString","coordinates":[[83.203364,28.076701],[83.203659,28.076954],[83.203949,28.076949]]}},{"type":"Feature","properties":{"kind":"drain","w":1},"geometry":{"type":"LineString","coordinates":[[83.203427,28.079786],[83.204297,28.079772],[83.204592,28.080025]]}},{"type":"Feature","properties":{"kind":"drain","w":1},"geometry":{"type":"LineString","coordinates":[[83.205415,28.063553],[83.20512,28.0633],[83.20483,28.063305],[83.204535,28.063053],[83.204245,28.063057],[83.203961,28.063319],[83.203381,28.063328]]}},{"type":"Feature","properties":{"kind":"drain","w":1},"geometry":{"type":"LineString","coordinates":[[83.204266,28.064086],[83.203381,28.063328]]}},{"type":"Feature","properties":{"kind":"drain","w":1},"geometry":{"type":"LineString","coordinates":[[83.203906,28.089037],[83.203911,28.089294]]}},{"type":"Feature","properties":{"kind":"drain","w":1},"geometry":{"type":"LineString","coordinates":[[83.204174,28.102148],[83.204169,28.101891],[83.203873,28.101638],[83.204158,28.101377]]}},{"type":"Feature","properties":{"kind":"drain","w":1},"geometry":{"type":"LineString","coordinates":[[83.204366,28.06897],[83.203797,28.069494],[83.203507,28.069498],[83.202938,28.070022],[83.202953,28.070793],[83.203249,28.071045],[83.203269,28.072074],[83.203565,28.072326],[83.20358,28.073097],[83.203875,28.07335],[83.203881,28.073607]]}},{"type":"Feature","properties":{"kind":"drain","w":1},"geometry":{"type":"LineString","coordinates":[[83.210299,28.089705],[83.20856,28.089733],[83.208265,28.089481],[83.207685,28.08949],[83.207116,28.090014],[83.20682,28.089761],[83.206536,28.090023],[83.206246,28.090028],[83.205961,28.090289],[83.205092,28.090303],[83.204807,28.090565],[83.204517,28.09057],[83.204233,28.090832]]}},{"type":"Feature","properties":{"kind":"drain","w":1},"geometry":{"type":"LineString","coordinates":[[83.207063,28.087443],[83.20564,28.088752],[83.205345,28.088499],[83.204765,28.088509]]}},{"type":"Feature","properties":{"kind":"drain","w":1},"geometry":{"type":"LineString","coordinates":[[83.205776,28.10958],[83.206662,28.110337],[83.207242,28.110328],[83.207537,28.11058]]}},{"type":"Feature","properties":{"kind":"drain","w":1},"geometry":{"type":"LineString","coordinates":[[83.207885,28.085115],[83.207595,28.08512],[83.207311,28.085382],[83.207016,28.085129],[83.206731,28.085391],[83.206441,28.085396],[83.205587,28.086181]]}},{"type":"Feature","properties":{"kind":"drain","w":1},"geometry":{"type":"LineString","coordinates":[[83.208634,28.065044],[83.208345,28.065049],[83.20805,28.064796],[83.20776,28.064801],[83.207465,28.064548],[83.206595,28.064562],[83.205415,28.063553]]}},{"type":"Feature","properties":{"kind":"drain","w":1},"geometry":{"type":"LineString","coordinates":[[83.205715,28.064062],[83.20542,28.06381],[83.205415,28.063553]]}},{"type":"Feature","properties":{"kind":"drain","w":1},"geometry":{"type":"LineString","coordinates":[[83.209003,28.068896],[83.209024,28.069924],[83.20817,28.070709],[83.208176,28.070966],[83.207891,28.071228],[83.207907,28.071999],[83.207622,28.072261],[83.207628,28.072518],[83.206489,28.073565]]}},{"type":"Feature","properties":{"kind":"drain","w":1},"geometry":{"type":"LineString","coordinates":[[83.207331,28.100554],[83.207922,28.101059]]}},{"type":"Feature","properties":{"kind":"drain","w":1},"geometry":{"type":"LineString","coordinates":[[83.208032,28.106458],[83.208612,28.106448],[83.208907,28.106701],[83.209487,28.106691],[83.209782,28.106944]]}},{"type":"Feature","properties":{"kind":"drain","w":1},"geometry":{"type":"LineString","coordinates":[[83.208692,28.082016],[83.208407,28.082278]]}},{"type":"Feature","properties":{"kind":"drain","w":1},"geometry":{"type":"LineString","coordinates":[[83.210731,28.082498],[83.210152,28.082507],[83.209857,28.082255],[83.209567,28.082259],[83.209272,28.082007],[83.208692,28.082016]]}},{"type":"Feature","properties":{"kind":"drain","w":1},"geometry":{"type":"LineString","coordinates":[[83.211264,28.080175],[83.210969,28.079922],[83.208692,28.082016]]}},{"type":"Feature","properties":{"kind":"drain","w":1},"geometry":{"type":"LineString","coordinates":[[83.20925,28.109267],[83.209535,28.109005],[83.210115,28.108996],[83.210399,28.108734],[83.210689,28.108729],[83.210974,28.108468],[83.211264,28.108463]]}},{"type":"Feature","properties":{"kind":"drain","w":1},"geometry":{"type":"LineString","coordinates":[[83.209277,28.096408],[83.208992,28.09667],[83.209008,28.097441],[83.209303,28.097694],[83.209018,28.097955],[83.209045,28.099241],[83.20876,28.099502],[83.20877,28.100017],[83.209656,28.100774]]}},{"type":"Feature","properties":{"kind":"drain","w":1},"geometry":{"type":"LineString","coordinates":[[83.20973,28.076085],[83.209446,28.076346],[83.209451,28.076603],[83.209166,28.076865],[83.209177,28.077379]]}},{"type":"Feature","properties":{"kind":"drain","w":1},"geometry":{"type":"LineString","coordinates":[[83.209398,28.074033],[83.209693,28.074285],[83.209714,28.075313],[83.210009,28.075566],[83.209725,28.075827],[83.20973,28.076085]]}},{"type":"Feature","properties":{"kind":"drain","w":1},"geometry":{"type":"LineString","coordinates":[[83.214658,28.076005],[83.214088,28.076529],[83.214094,28.076786],[83.212102,28.078618],[83.211807,28.078366],[83.211227,28.078375],[83.209519,28.079945]]}},{"type":"Feature","properties":{"kind":"drain","w":1},"geometry":{"type":"LineString","coordinates":[[83.210784,28.099213],[83.210789,28.09947],[83.210505,28.099731],[83.2108,28.099984],[83.209946,28.100769],[83.209951,28.101026]]}},{"type":"Feature","properties":{"kind":"drain","w":1},"geometry":{"type":"LineString","coordinates":[[83.212576,28.073467],[83.20973,28.076085]]}},{"type":"Feature","properties":{"kind":"drain","w":1},"geometry":{"type":"LineString","coordinates":[[83.216472,28.107864],[83.215892,28.107874],[83.215323,28.108397],[83.214743,28.108407],[83.212677,28.10664]]}},{"type":"Feature","properties":{"kind":"drain","w":1},"geometry":{"type":"LineString","coordinates":[[83.217579,28.105275],[83.216129,28.105298],[83.215845,28.10556],[83.214975,28.105574],[83.213794,28.104565]]}},{"type":"Feature","properties":{"kind":"drain","w":1},"geometry":{"type":"LineString","coordinates":[[83.21926,28.102419],[83.21897,28.102424],[83.218686,28.102685],[83.218106,28.102695],[83.217821,28.102956],[83.217531,28.102961],[83.217247,28.103223],[83.216957,28.103228],[83.216387,28.103751],[83.215797,28.103246],[83.215507,28.103251],[83.215222,28.103513],[83.214643,28.103522],[83.214052,28.103017],[83.214047,28.10276]]}},{"type":"Feature","properties":{"kind":"drain","w":1},"geometry":{"type":"LineString","coordinates":[[83.213862,28.065474],[83.214157,28.065726],[83.214447,28.065722],[83.215332,28.066479],[83.215622,28.066474],[83.215917,28.066727],[83.216207,28.066722],[83.216491,28.06646],[83.217651,28.066442],[83.216765,28.065684],[83.21676,28.065427],[83.216465,28.065175],[83.21646,28.064918],[83.216164,28.064665]]}},{"type":"Feature","properties":{"kind":"drain","w":1},"geometry":{"type":"LineString","coordinates":[[83.214806,28.097348],[83.215386,28.097338],[83.215681,28.097591],[83.215971,28.097586],[83.216255,28.097324],[83.216835,28.097315],[83.21683,28.097058],[83.216535,28.096805]]}},{"type":"Feature","properties":{"kind":"drain","w":1},"geometry":{"type":"LineString","coordinates":[[83.21529,28.078567],[83.215585,28.078819],[83.215606,28.079847],[83.216492,28.080604],[83.216502,28.081119],[83.216797,28.081371],[83.216808,28.081885],[83.217398,28.08239],[83.217404,28.082647]]}},{"type":"Feature","properties":{"kind":"drain","w":1},"geometry":{"type":"LineString","coordinates":[[83.215754,28.087046],[83.215765,28.08756],[83.21606,28.087812],[83.215775,28.088074],[83.21607,28.088326],[83.216076,28.088583],[83.216371,28.088836]]}},{"type":"Feature","properties":{"kind":"drain","w":1},"geometry":{"type":"LineString","coordinates":[[83.215865,28.092444],[83.217636,28.093959]]}},{"type":"Feature","properties":{"kind":"drain","w":1},"geometry":{"type":"LineString","coordinates":[[83.215902,28.094244],[83.215617,28.094506],[83.215913,28.094758],[83.215923,28.095272],[83.216218,28.095525],[83.216229,28.096039],[83.216524,28.096291],[83.216535,28.096805]]}},{"type":"Feature","properties":{"kind":"drain","w":1},"geometry":{"type":"LineString","coordinates":[[83.215944,28.096301],[83.216535,28.096805]]}},{"type":"Feature","properties":{"kind":"drain","w":1},"geometry":{"type":"LineString","coordinates":[[83.216371,28.088836],[83.216381,28.08935],[83.216086,28.089098]]}},{"type":"Feature","properties":{"kind":"drain","w":1},"geometry":{"type":"LineString","coordinates":[[83.217172,28.08548],[83.217467,28.085732],[83.217493,28.087017],[83.217209,28.087279],[83.217219,28.087793],[83.216366,28.088579],[83.216371,28.088836]]}},{"type":"Feature","properties":{"kind":"drain","w":1},"geometry":{"type":"LineString","coordinates":[[83.216813,28.082142],[83.217404,28.082647]]}},{"type":"Feature","properties":{"kind":"drain","w":1},"geometry":{"type":"LineString","coordinates":[[83.22221,28.076654],[83.222505,28.076907],[83.222521,28.077678],[83.222816,28.07793],[83.222821,28.078188],[83.224002,28.079197],[83.224017,28.079968],[83.224608,28.080473],[83.224629,28.081501],[83.225219,28.082006],[83.225235,28.082777],[83.224951,28.083039],[83.224956,28.083296],[83.224387,28.08382],[83.224408,28.084848],[83.222416,28.086681],[83.22094,28.085419],[83.22065,28.085423],[83.217404,28.082647]]}},{"type":"Feature","properties":{"kind":"drain","w":1},"geometry":{"type":"LineString","coordinates":[[83.217851,28.076211],[83.217867,28.076982],[83.218162,28.077234],[83.218167,28.077491],[83.218463,28.077744],[83.218468,28.078001],[83.221124,28.080272]]}},{"type":"Feature","properties":{"kind":"drain","w":1},"geometry":{"type":"LineString","coordinates":[[83.218004,28.069522],[83.218573,28.068998],[83.220022,28.068975],[83.220306,28.068713],[83.220596,28.068708],[83.221165,28.068185],[83.221455,28.06818]]}},{"type":"Feature","properties":{"kind":"drain","w":1},"geometry":{"type":"LineString","coordinates":[[83.218235,28.066689],[83.21852,28.066428]]}},{"type":"Feature","properties":{"kind":"drain","w":1},"geometry":{"type":"LineString","coordinates":[[83.218911,28.085452],[83.219491,28.085442],[83.220376,28.086199],[83.220666,28.086195],[83.220961,28.086447],[83.221251,28.086442],[83.221842,28.086947],[83.222711,28.086933]]}},{"type":"Feature","properties":{"kind":"drain","w":1},"geometry":{"type":"LineString","coordinates":[[83.219363,28.065128],[83.219658,28.06538],[83.219948,28.065376],[83.220243,28.065628]]}},{"type":"Feature","properties":{"kind":"drain","w":1},"geometry":{"type":"LineString","coordinates":[[83.219621,28.063581],[83.219916,28.063833],[83.219927,28.064347],[83.220222,28.0646],[83.220243,28.065628]]}},{"type":"Feature","properties":{"kind":"drain","w":1},"geometry":{"type":"LineString","coordinates":[[83.220243,28.065628],[83.220248,28.065885],[83.219964,28.066147]]}},{"type":"Feature","properties":{"kind":"drain","w":1},"geometry":{"type":"LineString","coordinates":[[83.220286,28.081829],[83.220002,28.082091],[83.221182,28.0831]]}},{"type":"Feature","properties":{"kind":"drain","w":1},"geometry":{"type":"LineString","coordinates":[[83.220513,28.078739],[83.221103,28.079244]]}},{"type":"Feature","properties":{"kind":"drain","w":1},"geometry":{"type":"LineString","coordinates":[[83.221148,28.109589],[83.221153,28.109846],[83.221744,28.110351]]}},{"type":"Feature","properties":{"kind":"drain","w":1},"geometry":{"type":"LineString","coordinates":[[83.220681,28.072822],[83.221566,28.073579],[83.222146,28.07357],[83.222441,28.073822],[83.22505,28.07378],[83.225334,28.073518],[83.226494,28.073499],[83.227084,28.074004],[83.227368,28.073742],[83.227664,28.073994],[83.227953,28.07399],[83.228238,28.073728],[83.228528,28.073723],[83.228812,28.073461],[83.229102,28.073457],[83.229692,28.073961]]}},{"type":"Feature","properties":{"kind":"drain","w":1},"geometry":{"type":"LineString","coordinates":[[83.221216,28.098787],[83.22121,28.09853],[83.221779,28.098006]]}},{"type":"Feature","properties":{"kind":"drain","w":1},"geometry":{"type":"LineString","coordinates":[[83.220886,28.068704],[83.221455,28.06818]]}},{"type":"Feature","properties":{"kind":"drain","w":1},"geometry":{"type":"LineString","coordinates":[[83.221103,28.079244],[83.221398,28.079496],[83.221114,28.079758],[83.221124,28.080272]]}},{"type":"Feature","properties":{"kind":"drain","w":1},"geometry":{"type":"LineString","coordinates":[[83.221382,28.078725],[83.221098,28.078987],[83.221103,28.079244]]}},{"type":"Feature","properties":{"kind":"drain","w":1},"geometry":{"type":"LineString","coordinates":[[83.221124,28.080272],[83.22113,28.080529],[83.221425,28.080782],[83.22143,28.081039],[83.220292,28.082086],[83.221177,28.082843]]}},{"type":"Feature","properties":{"kind":"drain","w":1},"geometry":{"type":"LineString","coordinates":[[83.221455,28.06818],[83.22174,28.067918],[83.222035,28.068171],[83.222325,28.068166]]}},{"type":"Feature","properties":{"kind":"drain","w":1},"geometry":{"type":"LineString","coordinates":[[83.222796,28.091046],[83.223376,28.091037],[83.223966,28.091542],[83.223971,28.091799],[83.224267,28.092051],[83.224277,28.092565],[83.224572,28.092818],[83.224588,28.093589],[83.224304,28.093851]]}},{"type":"Feature","properties":{"kind":"drain","w":1},"geometry":{"type":"LineString","coordinates":[[83.223508,28.097464],[83.223213,28.097212],[83.223208,28.096954]]}},{"type":"Feature","properties":{"kind":"drain","w":1},"geometry":{"type":"LineString","coordinates":[[83.223388,28.105695],[83.224548,28.105676],[83.224843,28.105929],[83.225423,28.105919],[83.225707,28.105658],[83.225997,28.105653],[83.226293,28.105905],[83.226583,28.1059],[83.227173,28.106405]]}},{"type":"Feature","properties":{"kind":"drain","w":1},"geometry":{"type":"LineString","coordinates":[[83.223418,28.093094],[83.224304,28.093851]]}},{"type":"Feature","properties":{"kind":"drain","w":1},"geometry":{"type":"LineString","coordinates":[[83.224014,28.093855],[83.224604,28.09436]]}},{"type":"Feature","properties":{"kind":"drain","w":1},"geometry":{"type":"LineString","coordinates":[[83.225159,28.065034],[83.22517,28.065548],[83.224885,28.06581],[83.224896,28.066324],[83.224327,28.066848],[83.224332,28.067105],[83.224048,28.067367],[83.224343,28.067619],[83.224058,28.067881],[83.224064,28.068138],[83.223779,28.0684],[83.223784,28.068657]]}},{"type":"Feature","properties":{"kind":"drain","w":1},"geometry":{"type":"LineString","coordinates":[[83.224304,28.093851],[83.224599,28.094103],[83.224604,28.09436]]}},{"type":"Feature","properties":{"kind":"drain","w":1},"geometry":{"type":"LineString","coordinates":[[83.224604,28.09436],[83.227852,28.097136]]}},{"type":"Feature","properties":{"kind":"drain","w":1},"geometry":{"type":"LineString","coordinates":[[83.224263,28.063763],[83.224269,28.06402],[83.224859,28.064525],[83.224864,28.064782],[83.225159,28.065034]]}},{"type":"Feature","properties":{"kind":"drain","w":1},"geometry":{"type":"LineString","coordinates":[[83.224823,28.076869],[83.225113,28.076865],[83.225408,28.077117],[83.225988,28.077108],[83.226283,28.07736],[83.226852,28.076836],[83.227142,28.076832],[83.227437,28.077084],[83.228887,28.07706],[83.229182,28.077313],[83.229762,28.077303],[83.230046,28.077042],[83.230626,28.077032],[83.231195,28.076509],[83.231785,28.077013]]}},{"type":"Feature","properties":{"kind":"drain","w":1},"geometry":{"type":"LineString","coordinates":[[83.225718,28.063996],[83.225728,28.064511],[83.225159,28.065034]]}},{"type":"Feature","properties":{"kind":"drain","w":1},"geometry":{"type":"LineString","coordinates":[[83.226593,28.106415],[83.227173,28.106405]]}},{"type":"Feature","properties":{"kind":"drain","w":1},"geometry":{"type":"LineString","coordinates":[[83.226419,28.0699],[83.226715,28.070152],[83.22672,28.070409]]}},{"type":"Feature","properties":{"kind":"drain","w":1},"geometry":{"type":"LineString","coordinates":[[83.227115,28.103577],[83.227694,28.103568],[83.22799,28.10382],[83.228859,28.103806],[83.229745,28.104563]]}},{"type":"Feature","properties":{"kind":"drain","w":1},"geometry":{"type":"LineString","coordinates":[[83.227173,28.106405],[83.228043,28.106391]]}},{"type":"Feature","properties":{"kind":"drain","w":1},"geometry":{"type":"LineString","coordinates":[[83.227516,28.108971],[83.227801,28.108709],[83.22954,28.108681],[83.230109,28.108158],[83.230399,28.108153]]}},{"type":"Feature","properties":{"kind":"drain","w":1},"geometry":{"type":"LineString","coordinates":[[83.227623,28.086082],[83.227655,28.087624],[83.228245,28.088129],[83.228277,28.089672]]}},{"type":"Feature","properties":{"kind":"drain","w":1},"geometry":{"type":"LineString","coordinates":[[83.228277,28.089672],[83.227993,28.089933],[83.227998,28.09019],[83.227713,28.090452],[83.227719,28.090709]]}},{"type":"Feature","properties":{"kind":"drain","w":1},"geometry":{"type":"LineString","coordinates":[[83.229131,28.088886],[83.228277,28.089672]]}},{"type":"Feature","properties":{"kind":"drain","w":1},"geometry":{"type":"LineString","coordinates":[[83.23036,28.092209],[83.230365,28.092466],[83.23008,28.092728],[83.230086,28.092985],[83.229232,28.093771],[83.229243,28.094285],[83.229833,28.09479],[83.229838,28.095047],[83.228415,28.096356],[83.228421,28.096613]]}},{"type":"Feature","properties":{"kind":"drain","w":1},"geometry":{"type":"LineString","coordinates":[[83.232442,28.094747],[83.229312,28.097627]]}},{"type":"Feature","properties":{"kind":"drain","w":1},"geometry":{"type":"LineString","coordinates":[[83.233054,28.09628],[83.232769,28.096542],[83.232479,28.096547],[83.231889,28.096042],[83.231599,28.096047],[83.229322,28.098141],[83.229328,28.098398]]}},{"type":"Feature","properties":{"kind":"drain","w":1},"geometry":{"type":"LineString","coordinates":[[83.229745,28.104563],[83.229461,28.104825],[83.229756,28.105077]]}},{"type":"Feature","properties":{"kind":"drain","w":1},"geometry":{"type":"LineString","coordinates":[[83.23003,28.104301],[83.229745,28.104563]]}},{"type":"Feature","properties":{"kind":"drain","w":1},"geometry":{"type":"LineString","coordinates":[[83.229281,28.068053],[83.229871,28.068558],[83.230161,28.068553],[83.230456,28.068806],[83.230746,28.068801],[83.231041,28.069053],[83.231046,28.06931],[83.232227,28.07032]]}},{"type":"Feature","properties":{"kind":"drain","w":1},"geometry":{"type":"LineString","coordinates":[[83.230126,28.080898],[83.230421,28.08115],[83.230711,28.081145],[83.231006,28.081398],[83.231586,28.081388],[83.233357,28.082903]]}},{"type":"Feature","properties":{"kind":"drain","w":1},"geometry":{"type":"LineString","coordinates":[[83.231985,28.100669],[83.231415,28.101193],[83.23112,28.100941],[83.23083,28.100945],[83.230546,28.101207]]}},{"type":"Feature","properties":{"kind":"drain","w":1},"geometry":{"type":"LineString","coordinates":[[83.232033,28.102983],[83.231453,28.102992],[83.231168,28.103254]]}},{"type":"Feature","properties":{"kind":"drain","w":1},"geometry":{"type":"LineString","coordinates":[[83.23136,28.084478],[83.231939,28.084469],[83.233362,28.08316],[83.234543,28.084169]]}},{"type":"Feature","properties":{"kind":"drain","w":1},"geometry":{"type":"LineString","coordinates":[[83.231214,28.063393],[83.231219,28.06365],[83.230934,28.063912],[83.230956,28.06494],[83.231251,28.065192],[83.231267,28.065964],[83.231562,28.066216],[83.231573,28.06673],[83.231868,28.066983],[83.231884,28.067754],[83.232168,28.067492],[83.232458,28.067487],[83.23388,28.066178],[83.233875,28.065921],[83.234444,28.065398],[83.234149,28.065145],[83.234433,28.064883],[83.234428,28.064626],[83.234713,28.064365],[83.234707,28.064108]]}},{"type":"Feature","properties":{"kind":"drain","w":1},"geometry":{"type":"LineString","coordinates":[[83.231304,28.067763],[83.231594,28.067759],[83.231889,28.068011]]}},{"type":"Feature","properties":{"kind":"drain","w":1},"geometry":{"type":"LineString","coordinates":[[83.233256,28.078018],[83.232096,28.078037],[83.231812,28.078299]]}},{"type":"Feature","properties":{"kind":"drain","w":1},"geometry":{"type":"LineString","coordinates":[[83.234157,28.079546],[83.233873,28.079808],[83.233583,28.079813],[83.232729,28.080598]]}},{"type":"Feature","properties":{"kind":"drain","w":1},"geometry":{"type":"LineString","coordinates":[[83.239885,28.07611],[83.239316,28.076633],[83.239026,28.076638],[83.234474,28.080827],[83.234178,28.080575],[83.23304,28.081622]]}},{"type":"Feature","properties":{"kind":"drain","w":1},"geometry":{"type":"LineString","coordinates":[[83.23784,28.075372],[83.237851,28.075886],[83.237282,28.07641],[83.237577,28.076662],[83.234732,28.07928],[83.233256,28.078018]]}},{"type":"Feature","properties":{"kind":"drain","w":1},"geometry":{"type":"LineString","coordinates":[[83.23354,28.077756],[83.233256,28.078018]]}},{"type":"Feature","properties":{"kind":"drain","w":1},"geometry":{"type":"LineString","coordinates":[[83.236277,28.083884],[83.235992,28.084145],[83.236003,28.08466],[83.234865,28.085707]]}},{"type":"Feature","properties":{"kind":"drain","w":1},"geometry":{"type":"LineString","coordinates":[[83.234918,28.088278],[83.235213,28.08853]]}},{"type":"Feature","properties":{"kind":"drain","w":1},"geometry":{"type":"LineString","coordinates":[[83.235218,28.088787],[83.235809,28.089292],[83.236099,28.089287]]}},{"type":"Feature","properties":{"kind":"drain","w":1},"geometry":{"type":"LineString","coordinates":[[83.236026,28.071801],[83.236032,28.072058]]}},{"type":"Feature","properties":{"kind":"drain","w":1},"geometry":{"type":"LineString","coordinates":[[83.238649,28.086417],[83.237511,28.087464],[83.237516,28.087721],[83.236093,28.08903],[83.236389,28.089282]]}},{"type":"Feature","properties":{"kind":"drain","w":1},"geometry":{"type":"LineString","coordinates":[[83.23694,28.101874],[83.23695,28.102389],[83.237246,28.102641],[83.237251,28.102898],[83.237842,28.103403]]}},{"type":"Feature","properties":{"kind":"drain","w":1},"geometry":{"type":"LineString","coordinates":[[83.237054,28.093386],[83.237923,28.093372],[83.238219,28.093624]]}},{"type":"Feature","properties":{"kind":"drain","w":1},"geometry":{"type":"LineString","coordinates":[[83.237262,28.103412],[83.237842,28.103403]]}},{"type":"Feature","properties":{"kind":"drain","w":1},"geometry":{"type":"LineString","coordinates":[[83.237626,28.107006],[83.238217,28.107511],[83.238786,28.106988]]}},{"type":"Feature","properties":{"kind":"drain","w":1},"geometry":{"type":"LineString","coordinates":[[83.237842,28.103403],[83.238131,28.103398],[83.238427,28.10365],[83.238717,28.103646],[83.239898,28.104655]]}},{"type":"Feature","properties":{"kind":"drain","w":1},"geometry":{"type":"LineString","coordinates":[[83.238539,28.109049],[83.238534,28.108792],[83.238818,28.10853]]}},{"type":"Feature","properties":{"kind":"drain","w":1},"geometry":{"type":"LineString","coordinates":[[83.237938,28.066112],[83.238233,28.066365],[83.238238,28.066622],[83.240009,28.068136],[83.240015,28.068393]]}},{"type":"Feature","properties":{"kind":"drain","w":1},"geometry":{"type":"LineString","coordinates":[[83.238603,28.070216],[83.238308,28.069964],[83.238023,28.070225]]}},{"type":"Feature","properties":{"kind":"drain","w":1},"geometry":{"type":"LineString","coordinates":[[83.240162,28.089478],[83.240173,28.089992],[83.239035,28.091039],[83.238745,28.091044],[83.23846,28.091306]]}},{"type":"Feature","properties":{"kind":"drain","w":1},"geometry":{"type":"LineString","coordinates":[[83.238786,28.106988],[83.23877,28.106216],[83.238475,28.105964],[83.238759,28.105702],[83.238754,28.105445]]}},{"type":"Feature","properties":{"kind":"drain","w":1},"geometry":{"type":"LineString","coordinates":[[83.238818,28.10853],[83.238786,28.106988]]}},{"type":"Feature","properties":{"kind":"drain","w":1},"geometry":{"type":"LineString","coordinates":[[83.239989,28.109025],[83.239693,28.108773],[83.239409,28.109035],[83.238818,28.10853]]}},{"type":"Feature","properties":{"kind":"drain","w":1},"geometry":{"type":"LineString","coordinates":[[83.240015,28.068393],[83.23973,28.068655],[83.23944,28.068659],[83.238302,28.069707],[83.238297,28.069449],[83.238582,28.069188]]}},{"type":"Feature","properties":{"kind":"drain","w":1},"geometry":{"type":"LineString","coordinates":[[83.239453,28.097204],[83.239737,28.096943],[83.240033,28.097195]]}},{"type":"Feature","properties":{"kind":"drain","w":1},"geometry":{"type":"LineString","coordinates":[[83.239334,28.063518],[83.239618,28.063256],[83.239913,28.063508],[83.239924,28.064022],[83.241105,28.065032],[83.241394,28.065027],[83.24228,28.065784],[83.24257,28.065779]]}},{"type":"Feature","properties":{"kind":"drain","w":1},"geometry":{"type":"LineString","coordinates":[[83.240156,28.103108],[83.239586,28.103631],[83.240472,28.104388]]}},{"type":"Feature","properties":{"kind":"drain","w":1},"geometry":{"type":"LineString","coordinates":[[83.241448,28.067598],[83.241163,28.06786],[83.240873,28.067864],[83.240304,28.068388],[83.240015,28.068393]]}},{"type":"Feature","properties":{"kind":"drain","w":1},"geometry":{"type":"LineString","coordinates":[[83.242284,28.079928],[83.241715,28.080452],[83.241741,28.081737],[83.241457,28.081999],[83.241462,28.082256],[83.241178,28.082518],[83.241473,28.08277],[83.241484,28.083284],[83.242074,28.083789],[83.242095,28.084817],[83.241811,28.085079],[83.241816,28.085336]]}},{"type":"Feature","properties":{"kind":"drain","w":2},"geometry":{"type":"LineString","coordinates":[[83.17532,28.080749],[83.175911,28.081254],[83.175916,28.081511],[83.176211,28.081764],[83.176216,28.082021],[83.176806,28.082526],[83.176811,28.082783],[83.177992,28.083793],[83.177997,28.08405],[83.178292,28.084302],[83.178307,28.085074]]}},{"type":"Feature","properties":{"kind":"drain","w":2},"geometry":{"type":"LineString","coordinates":[[83.178169,28.106935],[83.179023,28.10615],[83.179018,28.105893],[83.179588,28.10537],[83.180167,28.105361],[83.180463,28.105613],[83.181332,28.105599],[83.181617,28.105338],[83.183067,28.105314],[83.183362,28.105567],[83.183652,28.105562],[83.183947,28.105815],[83.184237,28.10581],[83.184532,28.106063],[83.185112,28.106053],[83.185407,28.106306],[83.187437,28.106273],[83.187732,28.106526],[83.189181,28.106503],[83.189466,28.106241],[83.190626,28.106223],[83.192397,28.107737],[83.192687,28.107733],[83.193277,28.108238],[83.193288,28.108752],[83.194173,28.109509],[83.194178,28.109766],[83.194474,28.110019],[83.194479,28.110276],[83.194774,28.110528],[83.194779,28.110785]]}},{"type":"Feature","properties":{"kind":"drain","w":2},"geometry":{"type":"LineString","coordinates":[[83.180808,28.094035],[83.181378,28.093512],[83.181668,28.093507]]}},{"type":"Feature","properties":{"kind":"drain","w":2},"geometry":{"type":"LineString","coordinates":[[83.180863,28.06806],[83.181153,28.068055],[83.181438,28.067794],[83.182597,28.067775],[83.182892,28.068028],[83.183182,28.068023],[83.183772,28.068528],[83.184057,28.068266],[83.184346,28.068262],[83.184642,28.068514],[83.185801,28.068496],[83.186391,28.069001],[83.186386,28.068743],[83.187524,28.067697],[83.187519,28.06744],[83.188088,28.066916]]}},{"type":"Feature","properties":{"kind":"drain","w":2},"geometry":{"type":"LineString","coordinates":[[83.185317,28.087534],[83.185322,28.087791],[83.184752,28.088314],[83.184758,28.088572],[83.18248,28.090665]]}},{"type":"Feature","properties":{"kind":"drain","w":2},"geometry":{"type":"LineString","coordinates":[[83.183169,28.096055],[83.183459,28.09605]]}},{"type":"Feature","properties":{"kind":"drain","w":2},"geometry":{"type":"LineString","coordinates":[[83.184848,28.064396],[83.186028,28.065406],[83.186898,28.065392],[83.187193,28.065645],[83.187483,28.06564],[83.187778,28.065892],[83.187788,28.066407],[83.188083,28.066659],[83.188088,28.066916]]}},{"type":"Feature","properties":{"kind":"drain","w":2},"geometry":{"type":"LineString","coordinates":[[83.189777,28.078719],[83.189198,28.078728],[83.188607,28.078223],[83.188318,28.078228],[83.187748,28.078751],[83.187453,28.078499],[83.186599,28.079284],[83.186009,28.078779],[83.18514,28.078793]]}},{"type":"Feature","properties":{"kind":"drain","w":2},"geometry":{"type":"LineString","coordinates":[[83.196794,28.067291],[83.196499,28.067039],[83.195919,28.067048],[83.195624,28.066796],[83.195619,28.066539],[83.194733,28.065781],[83.194444,28.065786],[83.194149,28.065534],[83.192989,28.065552],[83.192399,28.065047],[83.192115,28.065309],[83.190955,28.065327],[83.19066,28.065075],[83.190376,28.065337],[83.190086,28.065341],[83.189801,28.065603],[83.189812,28.066117],[83.189242,28.066641],[83.188373,28.066654],[83.188088,28.066916]]}},{"type":"Feature","properties":{"kind":"drain","w":2},"geometry":{"type":"LineString","coordinates":[[83.192363,28.091793],[83.192078,28.092055],[83.192094,28.092826],[83.19124,28.093611],[83.191245,28.093869],[83.189821,28.095177],[83.192478,28.097449]]}},{"type":"Feature","properties":{"kind":"drain","w":2},"geometry":{"type":"LineString","coordinates":[[83.1998,28.086788],[83.199826,28.088073],[83.200417,28.088578],[83.200427,28.089093],[83.201313,28.08985],[83.203342,28.089817]]}},{"type":"Feature","properties":{"kind":"drain","w":2},"geometry":{"type":"LineString","coordinates":[[83.200576,28.082147],[83.200581,28.082404],[83.200876,28.082656],[83.200886,28.08317],[83.201181,28.083423],[83.201187,28.08368],[83.204728,28.086709],[83.204733,28.086966]]}},{"type":"Feature","properties":{"kind":"drain","w":2},"geometry":{"type":"LineString","coordinates":[[83.203091,28.063333],[83.202801,28.063338],[83.202211,28.062833],[83.202201,28.062319],[83.201906,28.062066],[83.2019,28.061809]]}},{"type":"Feature","properties":{"kind":"drain","w":2},"geometry":{"type":"LineString","coordinates":[[83.203881,28.073607],[83.204176,28.073859],[83.204181,28.074116]]}},{"type":"Feature","properties":{"kind":"drain","w":2},"geometry":{"type":"LineString","coordinates":[[83.204181,28.074116],[83.204228,28.07643],[83.203944,28.076692],[83.203949,28.076949],[83.204244,28.077201],[83.204265,28.07823],[83.20456,28.078482],[83.204571,28.078996],[83.204866,28.079249],[83.204871,28.079506],[83.204586,28.079768],[83.204592,28.080025],[83.204887,28.080277],[83.204897,28.080791],[83.205192,28.081044],[83.205198,28.081301],[83.204913,28.081563],[83.205208,28.081815],[83.205224,28.082586],[83.205519,28.082839],[83.205524,28.083096],[83.205819,28.083348],[83.205846,28.084634]]}},{"type":"Feature","properties":{"kind":"drain","w":2},"geometry":{"type":"LineString","coordinates":[[83.206489,28.073565],[83.206199,28.07357],[83.205915,28.073831],[83.204466,28.073855],[83.204181,28.074116]]}},{"type":"Feature","properties":{"kind":"drain","w":2},"geometry":{"type":"LineString","coordinates":[[83.204896,28.10908],[83.206667,28.110594]]}},{"type":"Feature","properties":{"kind":"drain","w":2},"geometry":{"type":"LineString","coordinates":[[83.205846,28.084634],[83.205561,28.084895]]}},{"type":"Feature","properties":{"kind":"drain","w":2},"geometry":{"type":"LineString","coordinates":[[83.209177,28.077379],[83.209182,28.077636],[83.209477,28.077889],[83.209519,28.079945],[83.209235,28.080207],[83.209256,28.081236],[83.208402,28.082021],[83.208407,28.082278],[83.205846,28.084634]]}},{"type":"Feature","properties":{"kind":"drain","w":2},"geometry":{"type":"LineString","coordinates":[[83.216381,28.08935],[83.216677,28.089602],[83.216682,28.089859],[83.217272,28.090364],[83.217283,28.090878],[83.217578,28.091131],[83.217594,28.091902],[83.217889,28.092154],[83.217604,28.092416],[83.21762,28.093187],[83.217915,28.09344],[83.217631,28.093702],[83.217641,28.094216],[83.219413,28.09573],[83.219423,28.096244],[83.22149,28.098011]]}},{"type":"Feature","properties":{"kind":"drain","w":2},"geometry":{"type":"LineString","coordinates":[[83.216835,28.097315],[83.218311,28.098577],[83.218601,28.098572]]}},{"type":"Feature","properties":{"kind":"drain","w":2},"geometry":{"type":"LineString","coordinates":[[83.217651,28.066442],[83.2191,28.066418],[83.219384,28.066156],[83.219964,28.066147],[83.221144,28.067157],[83.221434,28.067152],[83.222024,28.067657],[83.22203,28.067914],[83.222325,28.068166],[83.222904,28.068157],[83.223199,28.068409],[83.223489,28.068404],[83.22467,28.069414],[83.225249,28.069405],[83.22584,28.069909],[83.22613,28.069905],[83.228196,28.071671],[83.228201,28.071928],[83.228791,28.072433],[83.228796,28.07269],[83.229092,28.072943],[83.229097,28.0732],[83.229982,28.073957]]}},{"type":"Feature","properties":{"kind":"drain","w":2},"geometry":{"type":"LineString","coordinates":[[83.221177,28.082843],[83.221182,28.0831],[83.221478,28.083353],[83.221193,28.083614],[83.221198,28.083872],[83.221789,28.084376],[83.22182,28.085919],[83.222411,28.086424],[83.222416,28.086681],[83.223006,28.087185],[83.223022,28.087957],[83.223317,28.088209],[83.223323,28.088466],[83.224799,28.089728],[83.224804,28.089985],[83.225099,28.090237],[83.225104,28.090495],[83.2254,28.090747],[83.225405,28.091004],[83.2257,28.091256],[83.225711,28.091771],[83.226006,28.092023],[83.226296,28.092018],[83.226591,28.092271]]}},{"type":"Feature","properties":{"kind":"drain","w":2},"geometry":{"type":"LineString","coordinates":[[83.226591,28.092271],[83.226596,28.092528],[83.227187,28.093032],[83.227192,28.093289],[83.227487,28.093542],[83.227503,28.094313],[83.227798,28.094565],[83.227804,28.094823],[83.228099,28.095075],[83.22753,28.095598],[83.227535,28.095856],[83.228716,28.096865]]}},{"type":"Feature","properties":{"kind":"drain","w":2},"geometry":{"type":"LineString","coordinates":[[83.227719,28.090709],[83.227724,28.090966],[83.227439,28.091228],[83.227445,28.091485],[83.226591,28.092271]]}},{"type":"Feature","properties":{"kind":"drain","w":2},"geometry":{"type":"LineString","coordinates":[[83.228043,28.106391],[83.228327,28.106129],[83.228617,28.106125],[83.228902,28.105863],[83.229192,28.105858],[83.229476,28.105596],[83.230056,28.105587],[83.230352,28.105839],[83.230641,28.105834]]}},{"type":"Feature","properties":{"kind":"drain","w":2},"geometry":{"type":"LineString","coordinates":[[83.229692,28.073961],[83.229982,28.073957]]}},{"type":"Feature","properties":{"kind":"drain","w":2},"geometry":{"type":"LineString","coordinates":[[83.231884,28.067754],[83.231889,28.068011],[83.232184,28.068263],[83.232189,28.06852],[83.232485,28.068773],[83.2322,28.069034],[83.232237,28.070834],[83.232532,28.071086],[83.232543,28.071601],[83.232258,28.071862],[83.232274,28.072634],[83.23199,28.072895],[83.23258,28.0734],[83.232591,28.073914],[83.232306,28.074176],[83.232317,28.07469],[83.232032,28.074952],[83.232038,28.075209],[83.231753,28.075471],[83.229982,28.073957]]}},{"type":"Feature","properties":{"kind":"drain","w":2},"geometry":{"type":"LineString","coordinates":[[83.238302,28.069707],[83.238018,28.069968],[83.238023,28.070225],[83.236032,28.072058],[83.236042,28.072572],[83.235758,28.072834],[83.235763,28.073091],[83.235479,28.073353],[83.235484,28.07361],[83.235199,28.073872],[83.235221,28.0749],[83.231806,28.078042]]}},{"type":"Feature","properties":{"kind":"drain","w":2},"geometry":{"type":"LineString","coordinates":[[83.238754,28.105445],[83.239323,28.104921],[83.239613,28.104917],[83.239898,28.104655],[83.240188,28.10465],[83.240472,28.104388],[83.241052,28.104379],[83.241347,28.104631],[83.241927,28.104622],[83.242518,28.105126],[83.242808,28.105122]]}},{"type":"Feature","properties":{"kind":"drain","w":2},"geometry":{"type":"LineString","coordinates":[[83.241816,28.085336],[83.242407,28.085841],[83.242122,28.086103],[83.242138,28.086874],[83.242433,28.087126],[83.242444,28.08764],[83.242739,28.087893],[83.242782,28.089949],[83.242497,28.090211],[83.242503,28.090468],[83.241649,28.091254],[83.241665,28.092025],[83.241096,28.092549],[83.241112,28.09332],[83.241407,28.093572],[83.241123,28.093834],[83.241418,28.094086],[83.241434,28.094858],[83.241729,28.09511],[83.241735,28.095367],[83.242325,28.095872],[83.242341,28.096643],[83.242636,28.096895],[83.242642,28.097152],[83.24065,28.098985]]}},{"type":"Feature","properties":{"kind":"drain","w":3},"geometry":{"type":"LineString","coordinates":[[83.186391,28.069001],[83.186686,28.069253],[83.186401,28.069515],[83.186407,28.069772],[83.186122,28.070034],[83.186417,28.070286],[83.186422,28.070543],[83.187012,28.071048],[83.187023,28.071562],[83.187318,28.071815],[83.187333,28.072586],[83.187628,28.072838],[83.187639,28.073353],[83.187354,28.073614],[83.187649,28.073867],[83.187365,28.074128],[83.187375,28.074643],[83.18709,28.074904],[83.187096,28.075161],[83.186811,28.075423],[83.186816,28.07568],[83.186247,28.076204],[83.185957,28.076208],[83.185672,28.07647],[83.185383,28.076475],[83.184813,28.076998],[83.184818,28.077255],[83.185409,28.07776],[83.185424,28.078531],[83.184855,28.079055],[83.184865,28.079569],[83.184581,28.079831],[83.184291,28.079835],[83.183437,28.08062],[83.183147,28.080625],[83.182862,28.080887],[83.182572,28.080891],[83.182288,28.081153],[83.181998,28.081158],[83.180859,28.082204],[83.18087,28.082718],[83.178023,28.085335],[83.178028,28.085593],[83.177743,28.085854],[83.177754,28.086368],[83.178049,28.086621],[83.177764,28.086883],[83.177769,28.08714],[83.18072,28.089664],[83.18159,28.089651],[83.18218,28.090156],[83.182185,28.090413],[83.182775,28.090918],[83.18278,28.091175],[83.182211,28.091698],[83.182506,28.091951],[83.181367,28.092997],[83.181373,28.093254],[83.181668,28.093507],[83.182247,28.093498],[83.182838,28.094003],[83.182853,28.094774],[83.182569,28.095036],[83.182574,28.095293],[83.183459,28.09605],[83.183749,28.096046],[83.184044,28.096298],[83.184624,28.096289],[83.185214,28.096794],[83.185504,28.096789],[83.186928,28.095481],[83.187218,28.095476],[83.187513,28.095728],[83.188382,28.095714],[83.188667,28.095453],[83.189247,28.095444],[83.189542,28.095696],[83.190122,28.095687],[83.192188,28.097454],[83.195087,28.097407],[83.195371,28.097146],[83.195951,28.097136],[83.198229,28.095043],[83.198519,28.095038],[83.198803,28.094776],[83.200543,28.094748],[83.201723,28.095758],[83.201734,28.096272]]}},{"type":"Feature","properties":{"kind":"drain","w":3},"geometry":{"type":"LineString","coordinates":[[83.201734,28.096272],[83.201739,28.096529],[83.202034,28.096782],[83.202039,28.097039],[83.202335,28.097291],[83.201481,28.098076],[83.201496,28.098848],[83.202087,28.099353],[83.202097,28.099867],[83.203868,28.101381],[83.206767,28.101335],[83.207052,28.101073],[83.207347,28.101325],[83.207637,28.101321],[83.207922,28.101059],[83.208502,28.10105],[83.208786,28.100788],[83.209656,28.100774],[83.209951,28.101026],[83.209988,28.102826],[83.210283,28.103078],[83.210289,28.103335],[83.210584,28.103588],[83.210621,28.105387],[83.210051,28.105911],[83.210057,28.106168],[83.209772,28.10643],[83.209788,28.107201],[83.211264,28.108463],[83.211844,28.108454],[83.212698,28.107668],[83.212677,28.10664],[83.213815,28.105593],[83.213794,28.104565],[83.214079,28.104303],[83.214073,28.104046],[83.213778,28.103793],[83.213773,28.103536],[83.213478,28.103284],[83.215186,28.101713],[83.215475,28.101709],[83.21576,28.101447],[83.21605,28.101442],[83.217473,28.100133],[83.217463,28.099619],[83.21917,28.098048],[83.21946,28.098044],[83.219745,28.097782],[83.220615,28.097768],[83.22091,28.09802],[83.222069,28.098002],[83.224346,28.095907],[83.225506,28.095888],[83.225801,28.096141],[83.226091,28.096136],[83.227272,28.097146],[83.229011,28.097117]]}},{"type":"Feature","properties":{"kind":"drain","w":3},"geometry":{"type":"LineString","coordinates":[[83.205561,28.084895],[83.205587,28.086181],[83.204733,28.086966],[83.204739,28.087223],[83.205034,28.087476],[83.205044,28.08799],[83.20476,28.088251],[83.204765,28.088509],[83.203342,28.089817],[83.203932,28.090322],[83.203937,28.090579],[83.204233,28.090832],[83.203948,28.091093],[83.203953,28.09135],[83.203669,28.091612],[83.203684,28.092383],[83.2034,28.092645],[83.20341,28.093159],[83.203125,28.093421],[83.203146,28.094449],[83.203442,28.094702],[83.201734,28.096272]]}},{"type":"Feature","properties":{"kind":"drain","w":3},"geometry":{"type":"LineString","coordinates":[[83.228716,28.096865],[83.229011,28.097117]]}},{"type":"Feature","properties":{"kind":"drain","w":3},"geometry":{"type":"LineString","coordinates":[[83.229011,28.097117],[83.229306,28.09737],[83.229317,28.097884],[83.229032,28.098146],[83.229328,28.098398],[83.229333,28.098655],[83.229628,28.098908],[83.229633,28.099165],[83.229929,28.099417],[83.229939,28.099931],[83.230235,28.100183],[83.23025,28.100955],[83.230546,28.101207],[83.230556,28.101721],[83.231147,28.102226],[83.231173,28.103511],[83.22975,28.10482],[83.229756,28.105077],[83.230937,28.106087],[83.230942,28.106344],[83.231237,28.106596],[83.231248,28.10711],[83.230679,28.107634],[83.230684,28.107891],[83.230399,28.108153],[83.230695,28.108405],[83.230716,28.109434],[83.231011,28.109686],[83.231017,28.109943],[83.231312,28.110195]]}},{"type":"Feature","properties":{"kind":"drain","w":3},"geometry":{"type":"LineString","coordinates":[[83.231753,28.075471],[83.23179,28.07727],[83.231506,28.077532],[83.231511,28.077789],[83.231806,28.078042],[83.231822,28.078813],[83.232118,28.079065],[83.232128,28.079579],[83.232719,28.080084],[83.23274,28.081112],[83.233035,28.081365],[83.233051,28.082136],[83.233346,28.082388],[83.233357,28.082903],[83.234538,28.083912],[83.234548,28.084426],[83.234843,28.084679],[83.23487,28.085964],[83.234585,28.086226],[83.234881,28.086478],[83.234886,28.086735],[83.235181,28.086988],[83.235186,28.087245],[83.234902,28.087506],[83.234907,28.087763],[83.235202,28.088016],[83.235213,28.08853],[83.236099,28.089287],[83.236389,28.089282],[83.237569,28.090292],[83.237575,28.090549],[83.23787,28.090801],[83.23816,28.090796],[83.238455,28.091049],[83.238482,28.092334],[83.238197,28.092596],[83.238219,28.093624],[83.239695,28.094886],[83.239721,28.096171],[83.240017,28.096424],[83.240033,28.097195],[83.240328,28.097447],[83.240333,28.097704],[83.240629,28.097957],[83.24065,28.098985],[83.240945,28.099237],[83.240956,28.099751],[83.241251,28.100004],[83.241256,28.100261],[83.241552,28.100513],[83.241568,28.101284],[83.240999,28.101808],[83.241294,28.10206],[83.241299,28.102318],[83.241015,28.102579],[83.24102,28.102836],[83.241315,28.103089],[83.241321,28.103346],[83.241616,28.103598],[83.241331,28.10386],[83.242808,28.105122],[83.243098,28.105117],[83.243382,28.104855]]}}]}