{"type":"FeatureCollection","attribution":"Lake outline, roads and paths © OpenStreetMap contributors (ODbL)","features":[{"type":"Feature","properties":{"kind":"lake_point","name":"Timure Taal (report coordinate)","source":"Field study report 2026: 28°06′01.85″N, 83°22′45.71″E"},"geometry":{"type":"Point","coordinates":[83.37936389,28.10051389]}},{"type":"Feature","properties":{"kind":"road","name":"OSM unclassified","osm_id":"way/351073440"},"geometry":{"type":"LineString","coordinates":[[83.380882,28.103034],[83.381007,28.103103],[83.381027,28.103114],[83.381062,28.103133],[83.381089,28.103138],[83.381118,28.103126],[83.381137,28.103101],[83.381145,28.103057],[83.381134,28.102996],[83.381097,28.102826],[83.381073,28.102732],[83.381046,28.10265],[83.381013,28.10258],[83.380987,28.102526],[83.380933,28.102466],[83.380871,28.102407],[83.380839,28.102383],[83.380834,28.102348],[83.380855,28.102317],[83.380895,28.102317],[83.380933,28.102344],[83.380968,28.102404],[83.381008,28.102459],[83.381062,28.102523],[83.38111,28.102568],[83.381156,28.10262],[83.381198,28.102677],[83.38129,28.102762],[83.381394,28.102823],[83.381485,28.102868],[83.381563,28.10292],[83.381633,28.102993],[83.3817,28.103064],[83.381748,28.103131],[83.381813,28.103214],[83.381872,28.10328],[83.381947,28.103346],[83.382033,28.103392],[83.382092,28.103403],[83.382151,28.103408],[83.382274,28.103375],[83.382357,28.103334],[83.382416,28.103304],[83.382499,28.103284],[83.382628,28.103252],[83.382706,28.10322],[83.382805,28.103157],[83.382942,28.103061],[83.383028,28.102979],[83.383065,28.102911],[83.383122,28.102826],[83.383191,28.10276],[83.383261,28.10271],[83.383318,28.102682],[83.383403,28.102665],[83.383529,28.102657],[83.383655,28.102667],[83.383736,28.102683],[83.383881,28.10274],[83.384042,28.102792],[83.384203,28.102826],[83.384313,28.102833],[83.384409,28.102828],[83.384487,28.102812],[83.384578,28.102766],[83.384642,28.102725],[83.384672,28.102683],[83.384683,28.102641],[83.384677,28.102601],[83.384656,28.10257],[83.384637,28.102546],[83.384626,28.10252],[83.384621,28.102492],[83.384637,28.102464],[83.384669,28.102448],[83.384734,28.102444],[83.384782,28.102469],[83.384836,28.102504],[83.384905,28.102549],[83.385015,28.102594],[83.385147,28.102627],[83.385249,28.102628],[83.385329,28.102643],[83.385428,28.102674],[83.38552,28.102705],[83.385574,28.102713],[83.385624,28.102712],[83.385694,28.102688],[83.385716,28.102669],[83.385753,28.102584],[83.385758,28.102526],[83.385753,28.102476],[83.385726,28.102435],[83.385694,28.102407],[83.385659,28.102383],[83.385646,28.102355],[83.385648,28.102334],[83.385659,28.102313],[83.385689,28.102299],[83.385734,28.102291],[83.38582,28.102293],[83.385927,28.102298],[83.386145,28.102282],[83.38644,28.102277],[83.386566,28.102302],[83.386676,28.102362],[83.386735,28.102416],[83.386764,28.102475],[83.386788,28.102572],[83.386804,28.102733],[83.386812,28.102797],[83.386842,28.10288],[83.386853,28.102944],[83.386837,28.103005],[83.386761,28.103176],[83.386732,28.103228],[83.386678,28.103266],[83.386617,28.103306],[83.386571,28.103352],[83.386525,28.103448],[83.386501,28.103599],[83.386504,28.103715],[83.386533,28.103798],[83.386595,28.10393],[83.386684,28.104034],[83.386767,28.104089],[83.386842,28.104132],[83.386888,28.10415],[83.38696,28.10416],[83.387083,28.104165],[83.387231,28.104174],[83.387338,28.104184],[83.387427,28.104207],[83.387512,28.10424],[83.387582,28.104288],[83.387622,28.104351],[83.387657,28.104399],[83.387706,28.104446],[83.387751,28.104475],[83.387791,28.104519],[83.387824,28.104588],[83.387875,28.104699],[83.38792,28.10478],[83.387974,28.104839],[83.388078,28.104894],[83.38821,28.104948],[83.388323,28.105012],[83.388395,28.105066],[83.388438,28.105118],[83.38847,28.105187],[83.388524,28.105286],[83.388596,28.105372],[83.38869,28.105493],[83.388819,28.105667],[83.388867,28.105705],[83.388902,28.105726],[83.388942,28.10574],[83.388996,28.10575],[83.389047,28.105757],[83.389095,28.105786],[83.38913,28.105829],[83.389167,28.105882],[83.389224,28.10597],[83.389293,28.106041],[83.389369,28.106116],[83.389428,28.106194],[83.389471,28.106322],[83.389548,28.106521],[83.389602,28.106592],[83.389658,28.106642],[83.389666,28.106679],[83.389677,28.106736],[83.389715,28.106791],[83.38976,28.106829],[83.389803,28.106862],[83.389822,28.106897],[83.389854,28.106985],[83.389883,28.107051],[83.389913,28.107068],[83.389948,28.107064],[83.389985,28.107042],[83.389994,28.107006],[83.389994,28.106978],[83.389964,28.106885],[83.389943,28.10684],[83.38994,28.106784],[83.38994,28.106742],[83.389956,28.106711],[83.389977,28.106702],[83.390012,28.106709],[83.390047,28.106746],[83.390061,28.106791],[83.390101,28.106893],[83.390165,28.107041],[83.39027,28.107233],[83.390356,28.107371],[83.390396,28.107446],[83.390412,28.1075],[83.39042,28.107574],[83.39039,28.107676],[83.390348,28.107739],[83.390272,28.10778],[83.390187,28.107806],[83.390154,28.107825],[83.390144,28.107863],[83.39016,28.107893],[83.390219,28.107948],[83.390342,28.108027],[83.390385,28.108036],[83.390425,28.108033],[83.390471,28.108016],[83.390495,28.107991],[83.390511,28.10796],[83.390597,28.107762],[83.390648,28.107655],[83.390694,28.107568],[83.390763,28.107456],[83.390871,28.10733],[83.390906,28.107285],[83.390943,28.107227],[83.390986,28.107137],[83.391018,28.106993],[83.391015,28.106845],[83.390999,28.106714],[83.390938,28.106514],[83.390911,28.106448],[83.390897,28.106389],[83.390887,28.106317],[83.390887,28.106257],[83.390897,28.106181],[83.3909,28.106077],[83.390906,28.105916],[83.390887,28.105672],[83.390892,28.105594],[83.390913,28.105538],[83.390964,28.105462],[83.391034,28.105392],[83.391112,28.105353],[83.391222,28.105315],[83.391337,28.1053],[83.391471,28.105301],[83.391555,28.105299],[83.391667,28.105266],[83.391756,28.105217],[83.39182,28.105152],[83.391866,28.105083],[83.391901,28.104998],[83.391938,28.104919],[83.391976,28.104856],[83.392067,28.104765],[83.39233,28.104523],[83.392432,28.104437],[83.392485,28.104406],[83.39256,28.104397],[83.392627,28.104397],[83.392673,28.104415],[83.3927,28.104456],[83.392702,28.104609],[83.392702,28.104664],[83.392684,28.104702],[83.392657,28.104725],[83.392622,28.10474],[83.392528,28.10474],[83.392432,28.104744],[83.392306,28.104781],[83.392201,28.10484],[83.392139,28.104893],[83.392115,28.104952],[83.392121,28.104988],[83.392145,28.105007],[83.392174,28.105009],[83.392222,28.104993],[83.392316,28.104937],[83.39241,28.104898],[83.392536,28.104866],[83.392633,28.104854],[83.392689,28.104842],[83.392767,28.10483],[83.392796,28.104814],[83.392837,28.104768],[83.392847,28.104728],[83.392885,28.104586],[83.392914,28.104458],[83.392944,28.10438],[83.392998,28.104232],[83.393091,28.104026],[83.393151,28.103922],[83.393212,28.103855],[83.393247,28.103827],[83.393311,28.103801],[83.393411,28.103787],[83.394182,28.10368]]}},{"type":"Feature","properties":{"kind":"lake_outline","name":"Lake outline (OpenStreetMap, unverified)","area_m2_utm44":3350.8,"osm_id":"way/355390459"},"geometry":{"type":"Polygon","coordinates":[[[83.379752,28.10078],[83.379813,28.100709],[83.37976,28.100527],[83.379711,28.100465],[83.379524,28.100441],[83.379454,28.100423],[83.379347,28.100408],[83.379218,28.100375],[83.379124,28.100366],[83.379065,28.100397],[83.379025,28.10046],[83.378979,28.100541],[83.378893,28.100588],[83.378802,28.100657],[83.378786,28.100697],[83.378797,28.100735],[83.378845,28.100756],[83.378968,28.100756],[83.379035,28.10074],[83.379148,28.100754],[83.379202,28.100773],[83.379282,28.100785],[83.379363,28.100785],[83.379494,28.100777],[83.379687,28.100789],[83.379752,28.10078]]]}},{"type":"Feature","properties":{"kind":"path","name":"OSM path","osm_id":"way/627715423"},"geometry":{"type":"LineString","coordinates":[[83.36958,28.090138],[83.369569,28.090181],[83.369534,28.090316],[83.369526,28.090462],[83.369563,28.090777],[83.369571,28.090839],[83.369574,28.091132],[83.369574,28.091231],[83.369628,28.091217],[83.369665,28.091298],[83.369571,28.091513],[83.36948,28.091721],[83.369461,28.091851],[83.369544,28.091934],[83.369571,28.091974],[83.369603,28.092045],[83.369636,28.092128],[83.369649,28.092204],[83.369649,28.092263],[83.369518,28.09267],[83.369469,28.092836],[83.369472,28.093195],[83.369343,28.093333],[83.369188,28.09356],[83.369156,28.09386],[83.369182,28.093976],[83.36919,28.094262],[83.369252,28.094412],[83.369271,28.094539],[83.368987,28.094769],[83.369016,28.09493],[83.369035,28.095048],[83.369035,28.095415],[83.369038,28.095481],[83.369021,28.095588],[83.369,28.095737],[83.369075,28.095983],[83.368978,28.096155],[83.368874,28.096257],[83.368541,28.096409],[83.368528,28.096451],[83.36856,28.096489],[83.36859,28.096579],[83.368665,28.09664],[83.368748,28.096804],[83.368748,28.096903],[83.368764,28.096984],[83.36878,28.097026],[83.368834,28.097137],[83.368895,28.097192],[83.369003,28.097374],[83.369147,28.097495],[83.369201,28.09754],[83.369252,28.097611],[83.369467,28.097741],[83.369547,28.097861],[83.369595,28.097897],[83.369775,28.09798],[83.369906,28.097989],[83.370172,28.098025],[83.370395,28.0981],[83.370526,28.098195],[83.370636,28.098264],[83.370709,28.09832],[83.37095,28.098529],[83.371111,28.098749],[83.371194,28.098817],[83.371368,28.098978],[83.371435,28.099025],[83.371527,28.09907],[83.371671,28.099142],[83.371771,28.099241],[83.371899,28.099283],[83.372017,28.099302],[83.372092,28.099336],[83.372213,28.099423],[83.372334,28.099482],[83.372723,28.099702],[83.372978,28.099731],[83.37319,28.099738],[83.373578,28.099818],[83.373638,28.099835],[83.373718,28.099875],[83.373919,28.100022],[83.373973,28.100116],[83.374016,28.100156],[83.374077,28.100199],[83.374126,28.100218],[83.374214,28.100119],[83.374268,28.100111],[83.374641,28.10032],[83.374949,28.100346],[83.375003,28.100346],[83.375161,28.100315],[83.375343,28.100244],[83.375448,28.10023],[83.375561,28.10023],[83.375944,28.10031],[83.376009,28.100336],[83.376129,28.100341],[83.376406,28.100443],[83.376475,28.100452],[83.37669,28.100644],[83.376719,28.100684],[83.376786,28.100724],[83.377368,28.100876],[83.377723,28.100973],[83.377878,28.10098],[83.377934,28.10098],[83.378361,28.100951],[83.378693,28.100914],[83.379096,28.100795],[83.379723,28.1008],[83.379898,28.100691],[83.38,28.100672],[83.380032,28.10072],[83.380024,28.100781],[83.379871,28.100992],[83.379857,28.101176],[83.380182,28.101574],[83.38033,28.101725],[83.380461,28.101841],[83.380753,28.102127],[83.380871,28.102232],[83.380896,28.102269],[83.380895,28.102317]]}}]}